OBJECT_NAME,OBJECT_ID,EPOCH,MEAN_MOTION,ECCENTRICITY,INCLINATION,RA_OF_ASC_NODE,ARG_OF_PERICENTER,MEAN_ANOMALY,EPHEMERIS_TYPE,CLASSIFICATION_TYPE,NORAD_CAT_ID,ELEMENT_SET_NO,REV_AT_EPOCH,BSTAR,MEAN_MOTION_DOT,MEAN_MOTION_DDOT
NIMIQ 2,2002-062A,2026-06-26T05:29:45.543840,1.00272349,.00057993,9.4663,56.8044,33.0730,157.7329,0,U,27632,999,4427,0,-.67E-6,0
USA 167,2003-008A,2026-06-26T06:28:17.196672,1.00272785,.00038771,10.9790,43.3284,319.8612,246.5871,0,U,27691,999,686,0,.4E-7,0
USA 169 (MILSTAR-2 4),2003-012A,2026-06-25T21:52:38.009856,1.00272677,.01007729,12.3625,29.7716,9.6680,354.9202,0,U,27711,999,3304,0,-.269E-5,0
ASIASAT 4,2003-014A,2026-06-26T00:37:51.673728,1.00271023,.00028372,4.7260,75.6375,23.3522,332.1803,0,U,27718,999,4538,0,-.216E-5,0
HELLAS-SAT 2,2003-020A,2026-06-26T00:31:39.463392,1.00272570,.00031148,7.3762,67.7807,37.7189,166.5366,0,U,27811,999,4293,0,-.8E-6,0
THURAYA-2,2003-026A,2026-06-26T05:55:04.620864,1.00273034,.00027556,8.8534,31.9357,14.9637,0.2565,0,U,27825,999,8444,0,.127E-5,0
OPTUS C1,2003-028B,2026-06-25T13:49:38.534016,1.00272404,.00058102,6.9106,69.3104,20.3814,187.1928,0,U,27831,999,5314,0,-.147E-5,0
USA 170,2003-040A,2026-06-24T19:36:12.072096,1.00271103,.00021206,10.5162,47.8771,60.7420,122.5828,0,U,27875,999,3307,0,.125E-5,0
GALAXY 13 (HORIZONS-1),2003-044A,2026-06-26T05:06:41.414112,1.00269427,.00017349,1.4419,83.7489,2.7038,114.5561,0,U,27954,999,4666,0,.142E-5,0
YAMAL 202,2003-053A,2026-06-25T15:17:35.591136,1.00270978,.00031623,6.3643,70.8367,12.9684,222.8995,0,U,28089,999,8278,0,-.76E-6,0
UFO 11 (USA 174),2003-057A,2026-06-26T02:38:50.707968,1.00271678,.00023588,8.9513,33.7827,70.4524,285.3214,0,U,28117,999,8253,0,-.102E-5,0
USA 176 (DSP 22),2004-004A,2026-06-26T00:17:38.607360,1.00274140,.00012082,12.0741,26.0065,323.7615,239.5046,0,U,28158,999,3302,0,-.296E-5,0
ABS-4 (MOBISAT-1),2004-007A,2026-06-25T06:02:37.076928,1.00267705,.0004597,6.0614,71.9093,19.6306,333.5246,0,U,28184,999,5241,0,.44E-6,0
INTELSAT 10-02,2004-022A,2026-06-26T00:34:16.711392,1.00271201,.00002979,0.0267,285.6566,220.1739,135.8915,0,U,28358,999,8064,0,0,0
ANIK F2,2004-027A,2026-06-26T07:26:42.423936,1.00272157,.000426,3.3108,79.3291,13.8319,181.8221,0,U,28378,999,4135,0,-.42E-6,0
AMC-15,2004-041A,2026-06-26T05:59:10.281984,1.00272186,.00025154,0.0214,32.6163,54.6767,171.8212,0,U,28446,999,7939,0,-.78E-6,0
NSS-10,2005-003A,2026-06-26T07:26:22.851744,1.00272530,.00031632,6.4720,70.3451,15.4741,262.7575,0,U,28526,999,5324,0,-.247E-5,0
INMARSAT 4-F1,2005-009A,2026-06-25T11:27:38.676672,1.00272513,.0002926,5.1798,42.7746,51.9837,168.8779,0,U,28628,999,7775,0,.38E-6,0
DIRECTV 8,2005-019A,2026-06-26T07:24:32.556960,1.00271630,.00032758,0.0202,67.6929,31.0006,167.8276,0,U,28659,999,7716,0,.12E-6,0
GALAXY 28 (G-28),2005-022A,2026-06-26T05:34:51.558816,1.00271195,.000229,3.3211,78.8225,15.0936,237.0616,0,U,28702,999,5206,0,-.192E-5,0
THAICOM 4,2005-028A,2026-06-26T01:08:43.456416,1.00271500,.00019931,0.2683,85.8196,356.6374,328.4097,0,U,28786,999,5233,0,-.352E-5,0
ANIK F1R,2005-036A,2026-06-26T03:29:24.859968,1.00272097,.0004394,4.3354,76.4732,11.6528,131.2015,0,U,28868,999,4654,0,-.68E-6,0
SYRACUSE 3A,2005-041B,2026-06-25T21:22:36.117984,1.00271710,.00027852,4.6637,75.7315,15.2493,190.3309,0,U,28885,999,7583,0,.135E-5,0
INMARSAT 4-F2,2005-044A,2026-06-25T21:50:15.736704,1.00273000,.00032496,5.1062,43.6904,42.3997,299.0078,0,U,28899,999,7560,0,-.254E-5,0
METEOSAT-9 (MSG-2),2005-049B,2026-06-25T19:39:35.247744,1.00277120,.00019938,9.3807,54.0841,355.8110,204.6730,0,U,28912,999,708,0,.125E-5,0
EUTELSAT 174A,2005-052A,2026-06-26T01:24:11.972160,1.00274319,.000656,4.2419,76.4231,16.2423,16.5605,0,U,28924,999,5242,0,.16E-6,0
ECHOSTAR 10,2006-003A,2026-06-26T05:28:10.407936,1.00271020,.00023684,0.0197,333.4680,72.9627,199.7781,0,U,28935,999,7455,0,-.44E-6,0
SPAINSAT,2006-007A,2026-06-25T07:47:00.696768,1.00271826,.0005092,0.5844,86.4157,5.6856,267.9518,0,U,28945,999,7430,0,-.207E-5,0
JCSAT-5A,2006-010A,2026-06-26T06:20:12.653376,1.00272380,.00022521,1.1331,84.1427,358.0731,59.2779,0,U,29045,999,7386,0,-.317E-5,0
ASTRA 1KR,2006-012A,2026-06-26T05:47:57.803136,1.00275326,.00037057,0.4973,83.2438,8.5376,288.6034,0,U,29055,999,4578,0,.13E-5,0
GALAXY 16 (G-16),2006-023A,2026-06-26T06:50:40.267392,1.00272145,.00028773,0.0425,129.7330,313.2536,195.0813,0,U,29236,999,7306,0,-.116E-5,0
EUTELSAT 33F,2006-032A,2026-06-26T05:51:57.419712,1.00269801,.00037579,1.6849,82.1562,8.4914,304.7941,0,U,29270,999,4739,0,.165E-5,0
