NIMIQ 2                 
1 27632U 02062A   26177.22899935 -.00000067  00000+0  00000+0 0  9992
2 27632   9.4663  56.8044 0005799  33.0730 157.7329  1.00272349 44272
USA 167                 
1 27691U 03008A   26177.26964348  .00000004  00000+0  00000+0 0  9993
2 27691  10.9790  43.3284 0003877 319.8612 246.5871  1.00272785  6867
USA 169 (MILSTAR-2 4)   
1 27711U 03012A   26176.91155104 -.00000269  00000+0  00000+0 0  9998
2 27711  12.3625  29.7716 0100772   9.6680 354.9202  1.00272677 33044
ASIASAT 4               
1 27718U 03014A   26177.02629252 -.00000216  00000+0  00000+0 0  9992
2 27718   4.7260  75.6375 0002837  23.3522 332.1803  1.00271023 45382
HELLAS-SAT 2            
1 27811U 03020A   26177.02198453 -.00000080  00000+0  00000+0 0  9996
2 27811   7.3762  67.7807 0003114  37.7189 166.5366  1.00272570 42930
THURAYA-2               
1 27825U 03026A   26177.24658126  .00000127  00000+0  00000+0 0  9990
2 27825   8.8534  31.9357 0002755  14.9637   0.2565  1.00273034 84449
OPTUS C1                
1 27831U 03028B   26176.57614044 -.00000147  00000+0  00000+0 0  9998
2 27831   6.9106  69.3104 0005810  20.3814 187.1928  1.00272404 53149
USA 170                 
1 27875U 03040A   26175.81680639  .00000125  00000+0  00000+0 0  9994
2 27875  10.5162  47.8771 0002120  60.7420 122.5828  1.00271103 33070
GALAXY 13 (HORIZONS-1)  
1 27954U 03044A   26177.21297933  .00000142  00000+0  00000+0 0  9992
2 27954   1.4419  83.7489 0001734   2.7038 114.5561  1.00269427 46668
YAMAL 202               
1 28089U 03053A   26176.63721749 -.00000076  00000+0  00000+0 0  9991
2 28089   6.3643  70.8367 0003162  12.9684 222.8995  1.00270978 82780
UFO 11 (USA 174)        
1 28117U 03057A   26177.11030912 -.00000102  00000+0  00000+0 0  9996
2 28117   8.9513  33.7827 0002358  70.4524 285.3214  1.00271678 82532
USA 176 (DSP 22)        
1 28158U 04004A   26177.01225240 -.00000296  00000+0  00000+0 0  9997
2 28158  12.0741  26.0065 0001208 323.7615 239.5046  1.00274140 33024
ABS-4 (MOBISAT-1)       
1 28184U 04007A   26176.25181802  .00000044  00000+0  00000+0 0  9999
2 28184   6.0614  71.9093 0004597  19.6306 333.5246  1.00267705 52417
INTELSAT 10-02          
1 28358U 04022A   26177.02380453  .00000000  00000+0  00000+0 0  9990
2 28358   0.0267 285.6566 0000297 220.1739 135.8915  1.00271201 80647
ANIK F2                 
1 28378U 04027A   26177.31021324 -.00000042  00000+0  00000+0 0  9995
2 28378   3.3108  79.3291 0004260  13.8319 181.8221  1.00272157 41354
AMC-15                  
1 28446U 04041A   26177.24942456 -.00000078  00000+0  00000+0 0  9996
2 28446   0.0214  32.6163 0002515  54.6767 171.8212  1.00272186 79399
NSS-10                  
1 28526U 05003A   26177.30998671 -.00000247  00000+0  00000+0 0  9999
2 28526   6.4720  70.3451 0003163  15.4741 262.7575  1.00272530 53247
INMARSAT 4-F1           
1 28628U 05009A   26176.47753098  .00000038  00000+0  00000+0 0  9994
2 28628   5.1798  42.7746 0002926  51.9837 168.8779  1.00272513 77753
DIRECTV 8               
1 28659U 05019A   26177.30871015  .00000012  00000+0  00000+0 0  9994
2 28659   0.0202  67.6929 0003275  31.0006 167.8276  1.00271630 77160
GALAXY 28 (G-28)        
1 28702U 05022A   26177.23254119 -.00000192  00000+0  00000+0 0  9999
2 28702   3.3211  78.8225 0002290  15.0936 237.0616  1.00271195 52064
THAICOM 4               
1 28786U 05028A   26177.04772519 -.00000352  00000+0  00000+0 0  9993
2 28786   0.2683  85.8196 0001993 356.6374 328.4097  1.00271500 52337
ANIK F1R                
1 28868U 05036A   26177.14542662 -.00000068  00000+0  00000+0 0  9992
2 28868   4.3354  76.4732 0004394  11.6528 131.2015  1.00272097 46545
SYRACUSE 3A             
1 28885U 05041B   26176.89069581  .00000135  00000+0  00000+0 0  9996
2 28885   4.6637  75.7315 0002785  15.2493 190.3309  1.00271710 75830
INMARSAT 4-F2           
1 28899U 05044A   26176.90990436 -.00000254  00000+0  00000+0 0  9991
2 28899   5.1062  43.6904 0003249  42.3997 299.0078  1.00273000 75606
METEOSAT-9 (MSG-2)      
1 28912U 05049B   26176.81915796  .00000125  00000+0  00000+0 0  9994
2 28912   9.3807  54.0841 0001993 355.8110 204.6730  1.00277120  7085
EUTELSAT 174A           
1 28924U 05052A   26177.05847190  .00000016  00000+0  00000+0 0  9999
2 28924   4.2419  76.4231 0006560  16.2423  16.5605  1.00274319 52428
ECHOSTAR 10             
1 28935U 06003A   26177.22789824 -.00000044  00000+0  00000+0 0  9998
2 28935   0.0197 333.4680 0002368  72.9627 199.7781  1.00271020 74551
SPAINSAT                
1 28945U 06007A   26176.32431362 -.00000207  00000+0  00000+0 0  9995
2 28945   0.5844  86.4157 0005092   5.6856 267.9518  1.00271826 74307
JCSAT-5A                
1 29045U 06010A   26177.26403534 -.00000317  00000+0  00000+0 0  9997
2 29045   1.1331  84.1427 0002252 358.0731  59.2779  1.00272380 73861
ASTRA 1KR               
1 29055U 06012A   26177.24164124  .00000130  00000+0  00000+0 0  9999
2 29055   0.4973  83.2438 0003705   8.5376 288.6034  1.00275326 45789
GALAXY 16 (G-16)        
1 29236U 06023A   26177.28518828 -.00000116  00000+0  00000+0 0  9995
2 29236   0.0425 129.7330 0002877 313.2536 195.0813  1.00272145 73062
EUTELSAT 33F            
1 29270U 06032A   26177.24441458  .00000165  00000+0  00000+0 0  9996
2 29270   1.6849  82.1562 0003757   8.4914 304.7941  1.00269801 47390
